{
  "type": "FeatureCollection",
  "features": [
    {
      "type": "Feature",
      "properties": {
        "norad_id": 41890,
        "name": "CYGFM07",
        "group": "weather",
        "lat": -32.12841225025089,
        "lon": -15.826674500987648,
        "alt_km": 421.84320175507673,
        "timestamp": "2025-12-08T15:42:49.421602+00:00",
        "meta_object_name": "CYGFM07",
        "meta_object_id": "2016-078G",
        "meta_epoch": "2025-12-08T05:11:06.910080",
        "meta_mean_motion": 15.49725708,
        "meta_eccentricity": 0.00094356,
        "meta_inclination": 34.9479,
        "meta_ra_of_asc_node": 51.1071,
        "meta_arg_of_pericenter": 175.2415,
        "meta_mean_anomaly": 184.8398,
        "meta_ephemeris_type": 0,
        "meta_classification_type": "U",
        "meta_norad_cat_id": 41890,
        "meta_element_set_no": 999,
        "meta_rev_at_epoch": 49925,
        "meta_bstar": 0.00045384575,
        "meta_mean_motion_dot": 0.00026066,
        "meta_mean_motion_ddot": 0,
        "tle_line1": "1 41890U 16078G   25342.21605220  .00026066  00000+0  45385-3 0  9995",
        "tle_line2": "2 41890  34.9479  51.1071 0009435 175.2415 184.8398 15.49725708499259"
      },
      "geometry": {
        "type": "Point",
        "coordinates": [
          -15.826674500987648,
          -32.12841225025089
        ]
      }
    },
    {
      "type": "Feature",
      "properties": {
        "norad_id": 41891,
        "name": "CYGFM03",
        "group": "weather",
        "lat": 26.882535656240496,
        "lon": -176.4072175187188,
        "alt_km": 407.9899990167305,
        "timestamp": "2025-12-08T15:42:49.421613+00:00",
        "meta_object_name": "CYGFM03",
        "meta_object_id": "2016-078H",
        "meta_epoch": "2025-12-08T05:53:17.704320",
        "meta_mean_motion": 15.49628768,
        "meta_eccentricity": 0.00087415,
        "meta_inclination": 34.9435,
        "meta_ra_of_asc_node": 52.8305,
        "meta_arg_of_pericenter": 163.0151,
        "meta_mean_anomaly": 197.0865,
        "meta_ephemeris_type": 0,
        "meta_classification_type": "U",
        "meta_norad_cat_id": 41891,
        "meta_element_set_no": 999,
        "meta_rev_at_epoch": 49923,
        "meta_bstar": 0.00045289124,
        "meta_mean_motion_dot": 0.00025915,
        "meta_mean_motion_ddot": 0,
        "tle_line1": "1 41891U 16078H   25342.24534380  .00025915  00000+0  45289-3 0  9992",
        "tle_line2": "2 41891  34.9435  52.8305 0008741 163.0151 197.0865 15.49628768499232"
      },
      "geometry": {
        "type": "Point",
        "coordinates": [
          -176.4072175187188,
          26.882535656240496
        ]
      }
    },
    {
      "type": "Feature",
      "properties": {
        "norad_id": 43010,
        "name": "FENGYUN 3D",
        "group": "weather",
        "lat": 20.996088450975844,
        "lon": -54.57880701424924,
        "alt_km": 826.834466084676,
        "timestamp": "2025-12-08T15:42:49.421623+00:00",
        "meta_object_name": "FENGYUN 3D",
        "meta_object_id": "2017-072A",
        "meta_epoch": "2025-12-08T05:27:54.164736",
        "meta_mean_motion": 14.19682044,
        "meta_eccentricity": 8.039e-05,
        "meta_inclination": 98.9889,
        "meta_ra_of_asc_node": 308.4706,
        "meta_arg_of_pericenter": 195.4995,
        "meta_mean_anomaly": 164.6156,
        "meta_ephemeris_type": 0,
        "meta_classification_type": "U",
        "meta_norad_cat_id": 43010,
        "meta_element_set_no": 999,
        "meta_rev_at_epoch": 41789,
        "meta_bstar": 0.00013662197,
        "meta_mean_motion_dot": 2.43e-06,
        "meta_mean_motion_ddot": 0,
        "tle_line1": "1 43010U 17072A   25342.22771024  .00000243  00000+0  13662-3 0  9995",
        "tle_line2": "2 43010  98.9889 308.4706 0000803 195.4995 164.6156 14.19682044417899"
      },
      "geometry": {
        "type": "Point",
        "coordinates": [
          -54.57880701424924,
          20.996088450975844
        ]
      }
    },
    {
      "type": "Feature",
      "properties": {
        "norad_id": 43013,
        "name": "NOAA 20 (JPSS-1)",
        "group": "weather",
        "lat": 3.698317179778435,
        "lon": 99.56725337434233,
        "alt_km": 829.2001669108013,
        "timestamp": "2025-12-08T15:42:49.421635+00:00",
        "meta_object_name": "NOAA 20 (JPSS-1)",
        "meta_object_id": "2017-073A",
        "meta_epoch": "2025-12-08T06:25:42.661632",
        "meta_mean_motion": 14.19523914,
        "meta_eccentricity": 0.00021305,
        "meta_inclination": 98.7592,
        "meta_ra_of_asc_node": 278.6137,
        "meta_arg_of_pericenter": 93.9553,
        "meta_mean_anomaly": 266.1867,
        "meta_ephemeris_type": 0,
        "meta_classification_type": "U",
        "meta_norad_cat_id": 43013,
        "meta_element_set_no": 999,
        "meta_rev_at_epoch": 41738,
        "meta_bstar": 0.00011304123,
        "meta_mean_motion_dot": 1.94e-06,
        "meta_mean_motion_ddot": 0,
        "tle_line1": "1 43013U 17073A   25342.26785488  .00000194  00000+0  11304-3 0  9998",
        "tle_line2": "2 43013  98.7592 278.6137 0002130  93.9553 266.1867 14.19523914417385"
      },
      "geometry": {
        "type": "Point",
        "coordinates": [
          99.56725337434233,
          3.698317179778435
        ]
      }
    },
    {
      "type": "Feature",
      "properties": {
        "norad_id": 43226,
        "name": "GOES 17",
        "group": "weather",
        "lat": 0.29922438360977455,
        "lon": -136.17062611861303,
        "alt_km": 35776.901462822185,
        "timestamp": "2025-12-08T15:42:49.421647+00:00",
        "meta_object_name": "GOES 17",
        "meta_object_id": "2018-022A",
        "meta_epoch": "2025-12-08T06:10:47.136000",
        "meta_mean_motion": 1.00270783,
        "meta_eccentricity": 0.00035049,
        "meta_inclination": 0.4481,
        "meta_ra_of_asc_node": 89.1915,
        "meta_arg_of_pericenter": 185.2197,
        "meta_mean_anomaly": 166.0526,
        "meta_ephemeris_type": 0,
        "meta_classification_type": "U",
        "meta_norad_cat_id": 43226,
        "meta_element_set_no": 999,
        "meta_rev_at_epoch": 2850,
        "meta_bstar": 0,
        "meta_mean_motion_dot": -1.8e-06,
        "meta_mean_motion_ddot": 0,
        "tle_line1": "1 43226U 18022A   25342.25749000 -.00000180  00000+0  00000+0 0  9991",
        "tle_line2": "2 43226   0.4481  89.1915 0003504 185.2197 166.0526  1.00270783 28503"
      },
      "geometry": {
        "type": "Point",
        "coordinates": [
          -136.17062611861303,
          0.29922438360977455
        ]
      }
    },
    {
      "type": "Feature",
      "properties": {
        "norad_id": 43491,
        "name": "FENGYUN 2H",
        "group": "weather",
        "lat": -1.8897974447203993,
        "lon": 32.77228351207094,
        "alt_km": 35796.50188409863,
        "timestamp": "2025-12-08T15:42:49.421660+00:00",
        "meta_object_name": "FENGYUN 2H",
        "meta_object_id": "2018-050A",
        "meta_epoch": "2025-12-08T01:59:49.269696",
        "meta_mean_motion": 1.00271307,
        "meta_eccentricity": 0.00028716,
        "meta_inclination": 2.5386,
        "meta_ra_of_asc_node": 81.38,
        "meta_arg_of_pericenter": 165.706,
        "meta_mean_anomaly": 299.3283,
        "meta_ephemeris_type": 0,
        "meta_classification_type": "U",
        "meta_norad_cat_id": 43491,
        "meta_element_set_no": 999,
        "meta_rev_at_epoch": 2752,
        "meta_bstar": 0,
        "meta_mean_motion_dot": -1.28e-06,
        "meta_mean_motion_ddot": 0,
        "tle_line1": "1 43491U 18050A   25342.08320914 -.00000128  00000+0  00000+0 0  9998",
        "tle_line2": "2 43491   2.5386  81.3800 0002871 165.7060 299.3283  1.00271307 27523"
      },
      "geometry": {
        "type": "Point",
        "coordinates": [
          32.77228351207094,
          -1.8897974447203993
        ]
      }
    },
    {
      "type": "Feature",
      "properties": {
        "norad_id": 43689,
        "name": "METOP-C",
        "group": "weather",
        "lat": -69.94152003997561,
        "lon": 65.26084393289815,
        "alt_km": 828.0623120607897,
        "timestamp": "2025-12-08T15:42:49.421671+00:00",
        "meta_object_name": "METOP-C",
        "meta_object_id": "2018-087A",
        "meta_epoch": "2025-12-08T05:54:55.685376",
        "meta_mean_motion": 14.21509419,
        "meta_eccentricity": 0.00015231,
        "meta_inclination": 98.6935,
        "meta_ra_of_asc_node": 40.0848,
        "meta_arg_of_pericenter": 49.9597,
        "meta_mean_anomaly": 310.1714,
        "meta_ephemeris_type": 0,
        "meta_classification_type": "U",
        "meta_norad_cat_id": 43689,
        "meta_element_set_no": 999,
        "meta_rev_at_epoch": 36770,
        "meta_bstar": 0.00015358573,
        "meta_mean_motion_dot": 2.92e-06,
        "meta_mean_motion_ddot": 0,
        "tle_line1": "1 43689U 18087A   25342.24647784  .00000292  00000+0  15359-3 0  9990",
        "tle_line2": "2 43689  98.6935  40.0848 0001523  49.9597 310.1714 14.21509419367706"
      },
      "geometry": {
        "type": "Point",
        "coordinates": [
          65.26084393289815,
          -69.94152003997561
        ]
      }
    }
  ]
}